0 FENGYUN 1C DEB
1 32360U 99025CZD 13285.82105957  .00002254  00000-0  18257-2 0  4178
2 32360 098.1171 286.1171 0297159 299.2044 057.9685 13.72444272317728
0 FENGYUN 1C DEB
1 32360U 99025CZD 13286.84167961  .00002247  00000-0  18211-2 0  4187
2 32360 098.1177 286.9844 0296899 296.4547 060.6431 13.72448874317863
0 FENGYUN 1C DEB
1 32360U 99025CZD 13290.85123117  .00002295  00000-0  18573-2 0  4193
2 32360 098.1165 290.3879 0297219 285.5257 071.3318 13.72468740318410
0 FENGYUN 1C DEB
1 32360U 99025CZD 13291.21573356  .00002397  00000-0  19356-2 0  4203
2 32360 098.1162 290.6950 0297985 284.4259 072.4670 13.72473280318463
0 FENGYUN 1C DEB
1 32360U 99025CZD 13291.79892376  .00002498  00000-0  20222-2 0  4219
2 32360 098.1165 291.1939 0296501 282.7083 074.1290 13.72477909318546
0 FENGYUN 1C DEB
1 32360U 99025CZD 13295.22522264  .00002781  00000-0  22496-2 0  4228
2 32360 098.1184 294.1090 0295850 273.8123 082.9683 13.72500511319012
